{
  "type": "FeatureCollection",
  "features": [
    {
      "type": "Feature",
      "properties": {
        "norad_id": 66767,
        "name": "TRANSPORTER-15DF",
        "group": "last-30-days",
        "lat": -16.064339253004498,
        "lon": -112.85476488894808,
        "alt_km": 516.2540218111471,
        "timestamp": "2025-12-23T16:57:11.061488+00:00",
        "meta_object_name": "TRANSPORTER-15DF",
        "meta_object_id": "2025-276DF",
        "meta_epoch": "2025-12-23T03:26:19.394592",
        "meta_mean_motion": 15.18318546,
        "meta_eccentricity": 0.00020847,
        "meta_inclination": 97.437,
        "meta_ra_of_asc_node": 68.7473,
        "meta_arg_of_pericenter": 89.7278,
        "meta_mean_anomaly": 270.4195,
        "meta_ephemeris_type": 0,
        "meta_classification_type": "U",
        "meta_norad_cat_id": 66767,
        "meta_element_set_no": 999,
        "meta_rev_at_epoch": 370,
        "meta_bstar": 0.00046855536,
        "meta_mean_motion_dot": 9.553e-05,
        "meta_mean_motion_ddot": 0,
        "tle_line1": "1 66767U 25276DF  25357.14328003  .00009553  00000+0  46856-3 0  9990",
        "tle_line2": "2 66767  97.4370  68.7473 0002084  89.7278 270.4195 15.18318546  3704"
      },
      "geometry": {
        "type": "Point",
        "coordinates": [
          -112.85476488894808,
          -16.064339253004498
        ]
      }
    },
    {
      "type": "Feature",
      "properties": {
        "norad_id": 66768,
        "name": "TRANSPORTER-15DG",
        "group": "last-30-days",
        "lat": -28.07880896502948,
        "lon": -114.69309349084698,
        "alt_km": 517.1831990256205,
        "timestamp": "2025-12-23T16:57:11.061499+00:00",
        "meta_object_name": "TRANSPORTER-15DG",
        "meta_object_id": "2025-276DG",
        "meta_epoch": "2025-12-23T03:23:13.993152",
        "meta_mean_motion": 15.18525171,
        "meta_eccentricity": 0.00022238,
        "meta_inclination": 97.4355,
        "meta_ra_of_asc_node": 68.7462,
        "meta_arg_of_pericenter": 78.1887,
        "meta_mean_anomaly": 281.9597,
        "meta_ephemeris_type": 0,
        "meta_classification_type": "U",
        "meta_norad_cat_id": 66768,
        "meta_element_set_no": 999,
        "meta_rev_at_epoch": 370,
        "meta_bstar": 0.00060133061,
        "meta_mean_motion_dot": 0.00012357,
        "meta_mean_motion_ddot": 0,
        "tle_line1": "1 66768U 25276DG  25357.14113418  .00012357  00000+0  60133-3 0  9993",
        "tle_line2": "2 66768  97.4355  68.7462 0002223  78.1887 281.9597 15.18525171  3706"
      },
      "geometry": {
        "type": "Point",
        "coordinates": [
          -114.69309349084698,
          -28.07880896502948
        ]
      }
    },
    {
      "type": "Feature",
      "properties": {
        "norad_id": 66769,
        "name": "TRANSPORTER-15DH",
        "group": "last-30-days",
        "lat": -22.917882762274726,
        "lon": -113.84954817036724,
        "alt_km": 516.418143787354,
        "timestamp": "2025-12-23T16:57:11.061512+00:00",
        "meta_object_name": "TRANSPORTER-15DH",
        "meta_object_id": "2025-276DH",
        "meta_epoch": "2025-12-23T03:24:32.774400",
        "meta_mean_motion": 15.1840353,
        "meta_eccentricity": 0.00026924,
        "meta_inclination": 97.4418,
        "meta_ra_of_asc_node": 68.7631,
        "meta_arg_of_pericenter": 106.9621,
        "meta_mean_anomaly": 253.1908,
        "meta_ephemeris_type": 0,
        "meta_classification_type": "U",
        "meta_norad_cat_id": 66769,
        "meta_element_set_no": 999,
        "meta_rev_at_epoch": 370,
        "meta_bstar": 0.00031141349,
        "meta_mean_motion_dot": 6.34e-05,
        "meta_mean_motion_ddot": 0,
        "tle_line1": "1 66769U 25276DH  25357.14204600  .00006340  00000+0  31141-3 0  9990",
        "tle_line2": "2 66769  97.4418  68.7631 0002692 106.9621 253.1908 15.18403530  3702"
      },
      "geometry": {
        "type": "Point",
        "coordinates": [
          -113.84954817036724,
          -22.917882762274726
        ]
      }
    },
    {
      "type": "Feature",
      "properties": {
        "norad_id": 66770,
        "name": "TRANSPORTER-15DJ",
        "group": "last-30-days",
        "lat": -24.724706402362862,
        "lon": -114.12240069542092,
        "alt_km": 516.1400134917594,
        "timestamp": "2025-12-23T16:57:11.061522+00:00",
        "meta_object_name": "TRANSPORTER-15DJ",
        "meta_object_id": "2025-276DJ",
        "meta_epoch": "2025-12-23T03:24:03.838176",
        "meta_mean_motion": 15.18396934,
        "meta_eccentricity": 0.00031408,
        "meta_inclination": 97.445,
        "meta_ra_of_asc_node": 68.7739,
        "meta_arg_of_pericenter": 121.2767,
        "meta_mean_anomaly": 238.8775,
        "meta_ephemeris_type": 0,
        "meta_classification_type": "U",
        "meta_norad_cat_id": 66770,
        "meta_element_set_no": 999,
        "meta_rev_at_epoch": 370,
        "meta_bstar": 0.00047335737,
        "meta_mean_motion_dot": 9.674e-05,
        "meta_mean_motion_ddot": 0,
        "tle_line1": "1 66770U 25276DJ  25357.14171109  .00009674  00000+0  47336-3 0  9995",
        "tle_line2": "2 66770  97.4450  68.7739 0003140 121.2767 238.8775 15.18396934  3700"
      },
      "geometry": {
        "type": "Point",
        "coordinates": [
          -114.12240069542092,
          -24.724706402362862
        ]
      }
    },
    {
      "type": "Feature",
      "properties": {
        "norad_id": 66771,
        "name": "TRANSPORTER-15DK",
        "group": "last-30-days",
        "lat": -27.239716145601356,
        "lon": -114.53182492825677,
        "alt_km": 516.5071961312469,
        "timestamp": "2025-12-23T16:57:11.061532+00:00",
        "meta_object_name": "TRANSPORTER-15DK",
        "meta_object_id": "2025-276DK",
        "meta_epoch": "2025-12-23T03:23:26.021760",
        "meta_mean_motion": 15.18472394,
        "meta_eccentricity": 0.00029558,
        "meta_inclination": 97.4443,
        "meta_ra_of_asc_node": 68.7716,
        "meta_arg_of_pericenter": 112.4527,
        "meta_mean_anomaly": 247.702,
        "meta_ephemeris_type": 0,
        "meta_classification_type": "U",
        "meta_norad_cat_id": 66771,
        "meta_element_set_no": 999,
        "meta_rev_at_epoch": 370,
        "meta_bstar": 0.00051886965,
        "meta_mean_motion_dot": 0.00010635,
        "meta_mean_motion_ddot": 0,
        "tle_line1": "1 66771U 25276DK  25357.14127340  .00010635  00000+0  51887-3 0  9999",
        "tle_line2": "2 66771  97.4443  68.7716 0002955 112.4527 247.7020 15.18472394  3704"
      },
      "geometry": {
        "type": "Point",
        "coordinates": [
          -114.53182492825677,
          -27.239716145601356
        ]
      }
    },
    {
      "type": "Feature",
      "properties": {
        "norad_id": 66772,
        "name": "TRANSPORTER-15DL",
        "group": "last-30-days",
        "lat": -40.37881661368966,
        "lon": -117.05340859243329,
        "alt_km": 517.4160343479771,
        "timestamp": "2025-12-23T16:57:11.061542+00:00",
        "meta_object_name": "TRANSPORTER-15DL",
        "meta_object_id": "2025-276DL",
        "meta_epoch": "2025-12-23T03:20:02.228352",
        "meta_mean_motion": 15.18686186,
        "meta_eccentricity": 0.00029664,
        "meta_inclination": 97.4437,
        "meta_ra_of_asc_node": 68.7717,
        "meta_arg_of_pericenter": 101.9487,
        "meta_mean_anomaly": 258.208,
        "meta_ephemeris_type": 0,
        "meta_classification_type": "U",
        "meta_norad_cat_id": 66772,
        "meta_element_set_no": 999,
        "meta_rev_at_epoch": 370,
        "meta_bstar": 0.00047977026,
        "meta_mean_motion_dot": 9.888e-05,
        "meta_mean_motion_ddot": 0,
        "tle_line1": "1 66772U 25276DL  25357.13891468  .00009888  00000+0  47977-3 0  9991",
        "tle_line2": "2 66772  97.4437  68.7717 0002966 101.9487 258.2080 15.18686186  3708"
      },
      "geometry": {
        "type": "Point",
        "coordinates": [
          -117.05340859243329,
          -40.37881661368966
        ]
      }
    },
    {
      "type": "Feature",
      "properties": {
        "norad_id": 66773,
        "name": "TRANSPORTER-15DM",
        "group": "last-30-days",
        "lat": -33.547629941906095,
        "lon": -115.64650254275007,
        "alt_km": 517.4192256899287,
        "timestamp": "2025-12-23T16:57:11.061552+00:00",
        "meta_object_name": "TRANSPORTER-15DM",
        "meta_object_id": "2025-276DM",
        "meta_epoch": "2025-12-23T03:21:46.733472",
        "meta_mean_motion": 15.18526197,
        "meta_eccentricity": 0.00031393,
        "meta_inclination": 97.4433,
        "meta_ra_of_asc_node": 68.7693,
        "meta_arg_of_pericenter": 101.0681,
        "meta_mean_anomaly": 259.0907,
        "meta_ephemeris_type": 0,
        "meta_classification_type": "U",
        "meta_norad_cat_id": 66773,
        "meta_element_set_no": 999,
        "meta_rev_at_epoch": 370,
        "meta_bstar": 0.00035623722,
        "meta_mean_motion_dot": 7.289e-05,
        "meta_mean_motion_ddot": 0,
        "tle_line1": "1 66773U 25276DM  25357.14012423  .00007289  00000+0  35624-3 0  9998",
        "tle_line2": "2 66773  97.4433  68.7693 0003139 101.0681 259.0907 15.18526197  3700"
      },
      "geometry": {
        "type": "Point",
        "coordinates": [
          -115.64650254275007,
          -33.547629941906095
        ]
      }
    }
  ]
}